CCSDS_OMM_VERS = 2.0
CREATION_DATE  = 
ORIGINATOR     = 

OBJECT_NAME    = STARLINK-36462
OBJECT_ID      = 2026-002S
CENTER_NAME    = EARTH
REF_FRAME      = TEME
TIME_SYSTEM    = UTC
MEAN_ELEMENT_THEORY = SGP/SGP4

EPOCH          = 2026-01-15T22:00:01.999584
MEAN_MOTION    = 15.86255047
ECCENTRICITY   = .00015583
INCLINATION    = 42.9974
RA_OF_ASC_NODE = 270.0862
ARG_OF_PERICENTER = 261.8182
MEAN_ANOMALY   = 344.7789

EPHEMERIS_TYPE = 0
CLASSIFICATION_TYPE = U
NORAD_CAT_ID   = 67321
ELEMENT_SET_NO = 999
REV_AT_EPOCH   = 293
BSTAR          = -.63676608E-2
MEAN_MOTION_DOT = -.1429193E-1
MEAN_MOTION_DDOT = 0

CCSDS_OMM_VERS = 2.0
CREATION_DATE  = 
ORIGINATOR     = 

OBJECT_NAME    = STARLINK-36434
OBJECT_ID      = 2026-002T
CENTER_NAME    = EARTH
REF_FRAME      = TEME
TIME_SYSTEM    = UTC
MEAN_ELEMENT_THEORY = SGP/SGP4

EPOCH          = 2026-01-15T22:00:01.999584
MEAN_MOTION    = 15.86230197
ECCENTRICITY   = .00015639
INCLINATION    = 42.9974
RA_OF_ASC_NODE = 270.0909
ARG_OF_PERICENTER = 265.9990
MEAN_ANOMALY   = 338.6811

EPHEMERIS_TYPE = 0
CLASSIFICATION_TYPE = U
NORAD_CAT_ID   = 67322
ELEMENT_SET_NO = 999
REV_AT_EPOCH   = 293
BSTAR          = -.63376023E-2
MEAN_MOTION_DOT = -.1421833E-1
MEAN_MOTION_DDOT = 0

CCSDS_OMM_VERS = 2.0
CREATION_DATE  = 
ORIGINATOR     = 

OBJECT_NAME    = STARLINK-36497
OBJECT_ID      = 2026-002U
CENTER_NAME    = EARTH
REF_FRAME      = TEME
TIME_SYSTEM    = UTC
MEAN_ELEMENT_THEORY = SGP/SGP4

EPOCH          = 2026-01-15T22:00:01.999584
MEAN_MOTION    = 15.86256216
ECCENTRICITY   = .0001547
INCLINATION    = 42.9976
RA_OF_ASC_NODE = 270.0799
ARG_OF_PERICENTER = 269.6393
MEAN_ANOMALY   = 339.4633

EPHEMERIS_TYPE = 0
CLASSIFICATION_TYPE = U
NORAD_CAT_ID   = 67323
ELEMENT_SET_NO = 999
REV_AT_EPOCH   = 299
BSTAR          = -.64330873E-2
MEAN_MOTION_DOT = -.1471371E-1
MEAN_MOTION_DDOT = 0

CCSDS_OMM_VERS = 2.0
CREATION_DATE  = 
ORIGINATOR     = 

OBJECT_NAME    = STARLINK-36471
OBJECT_ID      = 2026-002V
CENTER_NAME    = EARTH
REF_FRAME      = TEME
TIME_SYSTEM    = UTC
MEAN_ELEMENT_THEORY = SGP/SGP4

EPOCH          = 2026-01-15T22:00:01.999584
MEAN_MOTION    = 15.86222013
ECCENTRICITY   = .00015717
INCLINATION    = 42.9979
RA_OF_ASC_NODE = 270.0652
ARG_OF_PERICENTER = 268.4579
MEAN_ANOMALY   = 346.5542

EPHEMERIS_TYPE = 0
CLASSIFICATION_TYPE = U
NORAD_CAT_ID   = 67324
ELEMENT_SET_NO = 999
REV_AT_EPOCH   = 293
BSTAR          = -.65296351E-2
MEAN_MOTION_DOT = -.1488691E-1
MEAN_MOTION_DDOT = 0

CCSDS_OMM_VERS = 2.0
CREATION_DATE  = 
ORIGINATOR     = 

OBJECT_NAME    = STARLINK-36473
OBJECT_ID      = 2026-002W
CENTER_NAME    = EARTH
REF_FRAME      = TEME
TIME_SYSTEM    = UTC
MEAN_ELEMENT_THEORY = SGP/SGP4

EPOCH          = 2026-01-15T22:00:01.999584
MEAN_MOTION    = 15.86225789
ECCENTRICITY   = .00016244
INCLINATION    = 42.9975
RA_OF_ASC_NODE = 270.0719
ARG_OF_PERICENTER = 267.8537
MEAN_ANOMALY   = 344.4335

EPHEMERIS_TYPE = 0
CLASSIFICATION_TYPE = U
NORAD_CAT_ID   = 67325
ELEMENT_SET_NO = 999
REV_AT_EPOCH   = 309
BSTAR          = -.64595525E-2
MEAN_MOTION_DOT = -.1474823E-1
MEAN_MOTION_DDOT = 0

CCSDS_OMM_VERS = 2.0
CREATION_DATE  = 
ORIGINATOR     = 

OBJECT_NAME    = STARLINK-36430
OBJECT_ID      = 2026-002X
CENTER_NAME    = EARTH
REF_FRAME      = TEME
TIME_SYSTEM    = UTC
MEAN_ELEMENT_THEORY = SGP/SGP4

EPOCH          = 2026-01-15T22:00:01.999584
MEAN_MOTION    = 15.86212817
ECCENTRICITY   = .00016332
INCLINATION    = 42.9974
RA_OF_ASC_NODE = 270.0510
ARG_OF_PERICENTER = 268.0664
MEAN_ANOMALY   = 352.4904

EPHEMERIS_TYPE = 0
CLASSIFICATION_TYPE = U
NORAD_CAT_ID   = 67326
ELEMENT_SET_NO = 999
REV_AT_EPOCH   = 309
BSTAR          = -.6726754E-2
MEAN_MOTION_DOT = -.1527732E-1
MEAN_MOTION_DDOT = 0

CCSDS_OMM_VERS = 2.0
CREATION_DATE  = 
ORIGINATOR     = 

OBJECT_NAME    = STARLINK-36501
OBJECT_ID      = 2026-002Y
CENTER_NAME    = EARTH
REF_FRAME      = TEME
TIME_SYSTEM    = UTC
MEAN_ELEMENT_THEORY = SGP/SGP4

EPOCH          = 2026-01-15T22:00:01.999584
MEAN_MOTION    = 15.86217135
ECCENTRICITY   = .00015948
INCLINATION    = 42.9979
RA_OF_ASC_NODE = 270.0583
ARG_OF_PERICENTER = 267.0397
MEAN_ANOMALY   = 350.6541

EPHEMERIS_TYPE = 0
CLASSIFICATION_TYPE = U
NORAD_CAT_ID   = 67327
ELEMENT_SET_NO = 999
REV_AT_EPOCH   = 293
BSTAR          = -.65924954E-2
MEAN_MOTION_DOT = -.1501051E-1
MEAN_MOTION_DDOT = 0

CCSDS_OMM_VERS = 2.0
CREATION_DATE  = 
ORIGINATOR     = 

OBJECT_NAME    = STARLINK-36489
OBJECT_ID      = 2026-002Z
CENTER_NAME    = EARTH
REF_FRAME      = TEME
TIME_SYSTEM    = UTC
MEAN_ELEMENT_THEORY = SGP/SGP4

EPOCH          = 2026-01-15T22:00:01.999584
MEAN_MOTION    = 15.86208098
ECCENTRICITY   = .000162
INCLINATION    = 42.9972
RA_OF_ASC_NODE = 270.0430
ARG_OF_PERICENTER = 269.3968
MEAN_ANOMALY   = 354.2180

EPHEMERIS_TYPE = 0
CLASSIFICATION_TYPE = U
NORAD_CAT_ID   = 67328
ELEMENT_SET_NO = 999
REV_AT_EPOCH   = 309
BSTAR          = -.69703373E-2
MEAN_MOTION_DOT = -.1575906E-1
MEAN_MOTION_DDOT = 0

CCSDS_OMM_VERS = 2.0
CREATION_DATE  = 
ORIGINATOR     = 

OBJECT_NAME    = STARLINK-36496
OBJECT_ID      = 2026-002AA
CENTER_NAME    = EARTH
REF_FRAME      = TEME
TIME_SYSTEM    = UTC
MEAN_ELEMENT_THEORY = SGP/SGP4

EPOCH          = 2026-01-15T22:00:01.999584
MEAN_MOTION    = 15.86210299
ECCENTRICITY   = .0001473
INCLINATION    = 42.9973
RA_OF_ASC_NODE = 270.0296
ARG_OF_PERICENTER = 266.6713
MEAN_ANOMALY   = 2.1676

EPHEMERIS_TYPE = 0
CLASSIFICATION_TYPE = U
NORAD_CAT_ID   = 67329
ELEMENT_SET_NO = 999
REV_AT_EPOCH   = 291
BSTAR          = -.73470539E-2
MEAN_MOTION_DOT = -.1650014E-1
MEAN_MOTION_DDOT = 0

CCSDS_OMM_VERS = 2.0
CREATION_DATE  = 
ORIGINATOR     = 

OBJECT_NAME    = STARLINK-36483
OBJECT_ID      = 2026-002AB
CENTER_NAME    = EARTH
REF_FRAME      = TEME
TIME_SYSTEM    = UTC
MEAN_ELEMENT_THEORY = SGP/SGP4

EPOCH          = 2026-01-15T22:00:01.999584
MEAN_MOTION    = 15.86105408
ECCENTRICITY   = .00016166
INCLINATION    = 42.9973
RA_OF_ASC_NODE = 270.0136
ARG_OF_PERICENTER = 265.0078
MEAN_ANOMALY   = 10.0533

EPHEMERIS_TYPE = 0
CLASSIFICATION_TYPE = U
NORAD_CAT_ID   = 67330
ELEMENT_SET_NO = 999
REV_AT_EPOCH   = 309
BSTAR          = -.75456605E-2
MEAN_MOTION_DOT = -.1681179E-1
MEAN_MOTION_DDOT = 0

CCSDS_OMM_VERS = 2.0
CREATION_DATE  = 
ORIGINATOR     = 

OBJECT_NAME    = STARLINK-36494
OBJECT_ID      = 2026-002AC
CENTER_NAME    = EARTH
REF_FRAME      = TEME
TIME_SYSTEM    = UTC
MEAN_ELEMENT_THEORY = SGP/SGP4

EPOCH          = 2026-01-15T22:00:01.999584
MEAN_MOTION    = 15.86207022
ECCENTRICITY   = .00016308
INCLINATION    = 42.9973
RA_OF_ASC_NODE = 270.0359
ARG_OF_PERICENTER = 263.7259
MEAN_ANOMALY   = 2.6317

EPHEMERIS_TYPE = 0
CLASSIFICATION_TYPE = U
NORAD_CAT_ID   = 67331
ELEMENT_SET_NO = 999
REV_AT_EPOCH   = 309
BSTAR          = -.71861747E-2
MEAN_MOTION_DOT = -.1618426E-1
MEAN_MOTION_DDOT = 0

CCSDS_OMM_VERS = 2.0
CREATION_DATE  = 
ORIGINATOR     = 

OBJECT_NAME    = STARLINK-36492
OBJECT_ID      = 2026-002AD
CENTER_NAME    = EARTH
REF_FRAME      = TEME
TIME_SYSTEM    = UTC
MEAN_ELEMENT_THEORY = SGP/SGP4

EPOCH          = 2026-01-15T22:00:01.999584
MEAN_MOTION    = 15.86104914
ECCENTRICITY   = .00015729
INCLINATION    = 42.9974
RA_OF_ASC_NODE = 270.0189
ARG_OF_PERICENTER = 268.6380
MEAN_ANOMALY   = 4.2674

EPHEMERIS_TYPE = 0
CLASSIFICATION_TYPE = U
NORAD_CAT_ID   = 67332
ELEMENT_SET_NO = 999
REV_AT_EPOCH   = 309
BSTAR          = -.75385044E-2
MEAN_MOTION_DOT = -.1679721E-1
MEAN_MOTION_DDOT = 0

