STARLINK-36462          
1 67321U 26002S   26015.91668981 -.01429193  00000+0 -63677-2 0  9992
2 67321  42.9974 270.0862 0001558 261.8182 344.7789 15.86255047  2937
STARLINK-36434          
1 67322U 26002T   26015.91668981 -.01421833  00000+0 -63376-2 0  9992
2 67322  42.9974 270.0909 0001563 265.9990 338.6811 15.86230197  2935
STARLINK-36497          
1 67323U 26002U   26015.91668981 -.01471371  00000+0 -64331-2 0  9997
2 67323  42.9976 270.0799 0001547 269.6393 339.4633 15.86256216  2992
STARLINK-36471          
1 67324U 26002V   26015.91668981 -.01488691  00000+0 -65296-2 0  9992
2 67324  42.9979 270.0652 0001571 268.4579 346.5542 15.86222013  2934
STARLINK-36473          
1 67325U 26002W   26015.91668981 -.01474823  00000+0 -64596-2 0  9997
2 67325  42.9975 270.0719 0001624 267.8537 344.4335 15.86225789  3099
STARLINK-36430          
1 67326U 26002X   26015.91668981 -.01527732  00000+0 -67268-2 0  9995
2 67326  42.9974 270.0510 0001633 268.0664 352.4904 15.86212817  3091
STARLINK-36501          
1 67327U 26002Y   26015.91668981 -.01501051  00000+0 -65925-2 0  9990
2 67327  42.9979 270.0583 0001594 267.0397 350.6541 15.86217135  2932
STARLINK-36489          
1 67328U 26002Z   26015.91668981 -.01575906  00000+0 -69703-2 0  9999
2 67328  42.9972 270.0430 0001620 269.3968 354.2180 15.86208098  3091
STARLINK-36496          
1 67329U 26002AA  26015.91668981 -.01650014  00000+0 -73471-2 0  9991
2 67329  42.9973 270.0296 0001473 266.6713   2.1676 15.86210299  2912
STARLINK-36483          
1 67330U 26002AB  26015.91668981 -.01681179  00000+0 -75457-2 0  9995
2 67330  42.9973 270.0136 0001616 265.0078  10.0533 15.86105408  3098
STARLINK-36494          
1 67331U 26002AC  26015.91668981 -.01618426  00000+0 -71862-2 0  9997
2 67331  42.9973 270.0359 0001630 263.7259   2.6317 15.86207022  3090
STARLINK-36492          
1 67332U 26002AD  26015.91668981 -.01679721  00000+0 -75385-2 0  9997
2 67332  42.9974 270.0189 0001572 268.6380   4.2674 15.86104914  3097
